{
  "type": "FeatureCollection",
  "features": [
    {
      "type": "Feature",
      "properties": {
        "norad_id": 50032,
        "name": "COSMOS 1408 DEB",
        "group": "cosmos-1408-debris",
        "lat": -34.260968936259935,
        "lon": 50.11762873741307,
        "alt_km": 442.1725499566546,
        "timestamp": "2025-12-15T22:44:29.198291+00:00",
        "meta_object_name": "COSMOS 1408 DEB",
        "meta_object_id": "1982-092RU",
        "meta_epoch": "2025-12-15T04:14:48.950880",
        "meta_mean_motion": 15.45720656,
        "meta_eccentricity": 0.00154709,
        "meta_inclination": 82.5645,
        "meta_ra_of_asc_node": 56.0111,
        "meta_arg_of_pericenter": 199.3332,
        "meta_mean_anomaly": 160.7333,
        "meta_ephemeris_type": 0,
        "meta_classification_type": "U",
        "meta_norad_cat_id": 50032,
        "meta_element_set_no": 999,
        "meta_rev_at_epoch": 22641,
        "meta_bstar": 8.3312552e-05,
        "meta_mean_motion_dot": 4.083e-05,
        "meta_mean_motion_ddot": 0,
        "tle_line1": "1 50032U 82092RU  25349.17695545  .00004083  00000+0  83313-4 0  9992",
        "tle_line2": "2 50032  82.5645  56.0111 0015470 199.3332 160.7333 15.45720656226412"
      },
      "geometry": {
        "type": "Point",
        "coordinates": [
          50.11762873741307,
          -34.260968936259935
        ]
      }
    },
    {
      "type": "Feature",
      "properties": {
        "norad_id": 50058,
        "name": "COSMOS 1408 DEB",
        "group": "cosmos-1408-debris",
        "lat": 19.9808371283566,
        "lon": 68.68771246614064,
        "alt_km": 371.21883146500295,
        "timestamp": "2025-12-15T22:44:29.198313+00:00",
        "meta_object_name": "COSMOS 1408 DEB",
        "meta_object_id": "1982-092SW",
        "meta_epoch": "2025-12-14T15:57:00.095616",
        "meta_mean_motion": 15.64237025,
        "meta_eccentricity": 0.00162597,
        "meta_inclination": 82.6133,
        "meta_ra_of_asc_node": 67.3271,
        "meta_arg_of_pericenter": 92.5268,
        "meta_mean_anomaly": 267.7853,
        "meta_ephemeris_type": 0,
        "meta_classification_type": "U",
        "meta_norad_cat_id": 50058,
        "meta_element_set_no": 999,
        "meta_rev_at_epoch": 22834,
        "meta_bstar": 0.00029284598,
        "meta_mean_motion_dot": 0.00028132,
        "meta_mean_motion_ddot": 0,
        "tle_line1": "1 50058U 82092SW  25348.66458444  .00028132  00000+0  29285-3 0  9996",
        "tle_line2": "2 50058  82.6133  67.3271 0016259  92.5268 267.7853 15.64237025228346"
      },
      "geometry": {
        "type": "Point",
        "coordinates": [
          68.68771246614064,
          19.9808371283566
        ]
      }
    },
    {
      "type": "Feature",
      "properties": {
        "norad_id": 50404,
        "name": "COSMOS 1408 DEB",
        "group": "cosmos-1408-debris",
        "lat": -80.98797289398189,
        "lon": 151.993713636345,
        "alt_km": 521.6800044911424,
        "timestamp": "2025-12-15T22:44:29.198327+00:00",
        "meta_object_name": "COSMOS 1408 DEB",
        "meta_object_id": "1982-092ADS",
        "meta_epoch": "2025-12-15T02:30:28.877760",
        "meta_mean_motion": 15.14190671,
        "meta_eccentricity": 0.01709008,
        "meta_inclination": 82.2038,
        "meta_ra_of_asc_node": 212.6121,
        "meta_arg_of_pericenter": 190.7536,
        "meta_mean_anomaly": 169.0027,
        "meta_ephemeris_type": 0,
        "meta_classification_type": "U",
        "meta_norad_cat_id": 50404,
        "meta_element_set_no": 999,
        "meta_rev_at_epoch": 21229,
        "meta_bstar": 0.0019887471,
        "meta_mean_motion_dot": 0.00052709,
        "meta_mean_motion_ddot": 0,
        "tle_line1": "1 50404U 82092ADS 25349.10450090  .00052709  00000+0  19887-2 0  9993",
        "tle_line2": "2 50404  82.2038 212.6121 0170900 190.7536 169.0027 15.14190671212297"
      },
      "geometry": {
        "type": "Point",
        "coordinates": [
          151.993713636345,
          -80.98797289398189
        ]
      }
    },
    {
      "type": "Feature",
      "properties": {
        "norad_id": 50621,
        "name": "COSMOS 1408 DEB",
        "group": "cosmos-1408-debris",
        "lat": -48.68045382235473,
        "lon": 62.30439100676299,
        "alt_km": 423.097210097013,
        "timestamp": "2025-12-15T22:44:29.198339+00:00",
        "meta_object_name": "COSMOS 1408 DEB",
        "meta_object_id": "1982-092ALR",
        "meta_epoch": "2025-12-15T07:31:38.940096",
        "meta_mean_motion": 15.56807649,
        "meta_eccentricity": 0.00289774,
        "meta_inclination": 82.5705,
        "meta_ra_of_asc_node": 71.5008,
        "meta_arg_of_pericenter": 143.0055,
        "meta_mean_anomaly": 217.3206,
        "meta_ephemeris_type": 0,
        "meta_classification_type": "U",
        "meta_norad_cat_id": 50621,
        "meta_element_set_no": 999,
        "meta_rev_at_epoch": 22290,
        "meta_bstar": 0.00028681027,
        "meta_mean_motion_dot": 0.00021009,
        "meta_mean_motion_ddot": 0,
        "tle_line1": "1 50621U 82092ALR 25349.31364514  .00021009  00000+0  28681-3 0  9994",
        "tle_line2": "2 50621  82.5705  71.5008 0028977 143.0055 217.3206 15.56807649222902"
      },
      "geometry": {
        "type": "Point",
        "coordinates": [
          62.30439100676299,
          -48.68045382235473
        ]
      }
    }
  ]
}